{
  "norad_id": 62756,
  "name": "USA 485",
  "history": [
    {
      "epoch": "2026-03-28T21:11:18.256416Z",
      "apogee_km": 341.79624710888766,
      "perigee_km": 339.1128416460624,
      "latitude_deg": 3.0343891291373436e-05,
      "longitude_deg": 94.75895118501155,
      "height_km": 340.49777777693225,
      "semi_major_axis_km": 6718.591544377475,
      "eccentricity": 0.0001997,
      "inclination_deg": 42.9976,
      "raan_deg": 238.8819,
      "arg_perigee_deg": 258.3379,
      "mean_anomaly_deg": 101.7267,
      "mean_motion_rev_day": 15.76468885
    }
  ]
}